{
  "type": "FeatureCollection",
  "features": [
    {
      "type": "Feature",
      "properties": {
        "norad_id": 66481,
        "name": "STARLINK-35698",
        "group": "last-30-days",
        "lat": 41.85160640361795,
        "lon": -166.8557330033828,
        "alt_km": 409.05507016212505,
        "timestamp": "2025-12-09T23:33:22.607712+00:00",
        "meta_object_name": "STARLINK-35698",
        "meta_object_id": "2025-262AB",
        "meta_epoch": "2025-12-09T15:23:23.904960",
        "meta_mean_motion": 15.50626467,
        "meta_eccentricity": 0.00016554,
        "meta_inclination": 43.0003,
        "meta_ra_of_asc_node": 89.1277,
        "meta_arg_of_pericenter": 272.7924,
        "meta_mean_anomaly": 87.2747,
        "meta_ephemeris_type": 0,
        "meta_classification_type": "U",
        "meta_norad_cat_id": 66481,
        "meta_element_set_no": 999,
        "meta_rev_at_epoch": 508,
        "meta_bstar": 0.0025324457,
        "meta_mean_motion_dot": 0.00151389,
        "meta_mean_motion_ddot": 0,
        "tle_line1": "1 66481U 25262AB  25343.64124890  .00151389  00000+0  25324-2 0  9997",
        "tle_line2": "2 66481  43.0003  89.1277 0001655 272.7924  87.2747 15.50626467  5081"
      },
      "geometry": {
        "type": "Point",
        "coordinates": [
          -166.8557330033828,
          41.85160640361795
        ]
      }
    },
    {
      "type": "Feature",
      "properties": {
        "norad_id": 66482,
        "name": "STARLINK-35648",
        "group": "last-30-days",
        "lat": 41.468957134904485,
        "lon": -164.37891515486768,
        "alt_km": 409.04968495873345,
        "timestamp": "2025-12-09T23:33:22.607723+00:00",
        "meta_object_name": "STARLINK-35648",
        "meta_object_id": "2025-262AC",
        "meta_epoch": "2025-12-09T15:22:54.339744",
        "meta_mean_motion": 15.50616056,
        "meta_eccentricity": 0.00014904,
        "meta_inclination": 43.0003,
        "meta_ra_of_asc_node": 89.1251,
        "meta_arg_of_pericenter": 266.2567,
        "meta_mean_anomaly": 93.8123,
        "meta_ephemeris_type": 0,
        "meta_classification_type": "U",
        "meta_norad_cat_id": 66482,
        "meta_element_set_no": 999,
        "meta_rev_at_epoch": 492,
        "meta_bstar": 0.0021573847,
        "meta_mean_motion_dot": 0.00128489,
        "meta_mean_motion_ddot": 0,
        "tle_line1": "1 66482U 25262AC  25343.64090671  .00128489  00000+0  21574-2 0  9995",
        "tle_line2": "2 66482  43.0003  89.1251 0001490 266.2567  93.8123 15.50616056  4928"
      },
      "geometry": {
        "type": "Point",
        "coordinates": [
          -164.37891515486768,
          41.468957134904485
        ]
      }
    },
    {
      "type": "Feature",
      "properties": {
        "norad_id": 66483,
        "name": "STARLINK-35654",
        "group": "last-30-days",
        "lat": 41.03847539785582,
        "lon": -161.95567589873227,
        "alt_km": 409.3902536077994,
        "timestamp": "2025-12-09T23:33:22.607733+00:00",
        "meta_object_name": "STARLINK-35654",
        "meta_object_id": "2025-262AD",
        "meta_epoch": "2025-12-09T15:22:24.581856",
        "meta_mean_motion": 15.50598746,
        "meta_eccentricity": 0.0001556,
        "meta_inclination": 43.001,
        "meta_ra_of_asc_node": 89.1218,
        "meta_arg_of_pericenter": 275.5543,
        "meta_mean_anomaly": 84.514,
        "meta_ephemeris_type": 0,
        "meta_classification_type": "U",
        "meta_norad_cat_id": 66483,
        "meta_element_set_no": 999,
        "meta_rev_at_epoch": 508,
        "meta_bstar": 0.00086382507,
        "meta_mean_motion_dot": 0.00050699,
        "meta_mean_motion_ddot": 0,
        "tle_line1": "1 66483U 25262AD  25343.64056229  .00050699  00000+0  86383-3 0  9994",
        "tle_line2": "2 66483  43.0010  89.1218 0001556 275.5543  84.5140 15.50598746  5089"
      },
      "geometry": {
        "type": "Point",
        "coordinates": [
          -161.95567589873227,
          41.03847539785582
        ]
      }
    },
    {
      "type": "Feature",
      "properties": {
        "norad_id": 66484,
        "name": "STARLINK-35371",
        "group": "last-30-days",
        "lat": 40.52160399447016,
        "lon": -159.40258591682525,
        "alt_km": 409.17644899704464,
        "timestamp": "2025-12-09T23:33:22.607746+00:00",
        "meta_object_name": "STARLINK-35371",
        "meta_object_id": "2025-262AE",
        "meta_epoch": "2025-12-09T15:21:54.962208",
        "meta_mean_motion": 15.50635147,
        "meta_eccentricity": 0.00016236,
        "meta_inclination": 43.0003,
        "meta_ra_of_asc_node": 89.1197,
        "meta_arg_of_pericenter": 271.4011,
        "meta_mean_anomaly": 88.6663,
        "meta_ephemeris_type": 0,
        "meta_classification_type": "U",
        "meta_norad_cat_id": 66484,
        "meta_element_set_no": 999,
        "meta_rev_at_epoch": 508,
        "meta_bstar": 0.0026267077,
        "meta_mean_motion_dot": 0.00157203,
        "meta_mean_motion_ddot": 0,
        "tle_line1": "1 66484U 25262AE  25343.64021947  .00157203  00000+0  26267-2 0  9997",
        "tle_line2": "2 66484  43.0003  89.1197 0001623 271.4011  88.6663 15.50635147  5080"
      },
      "geometry": {
        "type": "Point",
        "coordinates": [
          -159.40258591682525,
          40.52160399447016
        ]
      }
    },
    {
      "type": "Feature",
      "properties": {
        "norad_id": 66485,
        "name": "STARLINK-34774",
        "group": "last-30-days",
        "lat": -15.370544150214906,
        "lon": 124.17036567785455,
        "alt_km": 430.53880199028026,
        "timestamp": "2025-12-09T23:33:22.607760+00:00",
        "meta_object_name": "STARLINK-34774",
        "meta_object_id": "2025-263A",
        "meta_epoch": "2025-12-09T14:00:01.999872",
        "meta_mean_motion": 15.47468188,
        "meta_eccentricity": 0.00012979,
        "meta_inclination": 43.0003,
        "meta_ra_of_asc_node": 143.6428,
        "meta_arg_of_pericenter": 262.536,
        "meta_mean_anomaly": 15.2323,
        "meta_ephemeris_type": 0,
        "meta_classification_type": "U",
        "meta_norad_cat_id": 66485,
        "meta_element_set_no": 999,
        "meta_rev_at_epoch": 512,
        "meta_bstar": -0.04459081,
        "meta_mean_motion_dot": -0.02081953,
        "meta_mean_motion_ddot": 0,
        "tle_line1": "1 66485U 25263A   25343.58335648 -.02081953  00000+0 -44591-1 0  9999",
        "tle_line2": "2 66485  43.0003 143.6428 0001297 262.5360  15.2323 15.47468188  5128"
      },
      "geometry": {
        "type": "Point",
        "coordinates": [
          124.17036567785455,
          -15.370544150214906
        ]
      }
    },
    {
      "type": "Feature",
      "properties": {
        "norad_id": 66486,
        "name": "STARLINK-34844",
        "group": "last-30-days",
        "lat": -7.671757685033582,
        "lon": 132.9873130563923,
        "alt_km": 415.6685944124383,
        "timestamp": "2025-12-09T23:33:22.607773+00:00",
        "meta_object_name": "STARLINK-34844",
        "meta_object_id": "2025-263B",
        "meta_epoch": "2025-12-09T14:00:01.999872",
        "meta_mean_motion": 15.50572039,
        "meta_eccentricity": 0.00014515,
        "meta_inclination": 43.0003,
        "meta_ra_of_asc_node": 143.6281,
        "meta_arg_of_pericenter": 268.2613,
        "meta_mean_anomaly": 15.3529,
        "meta_ephemeris_type": 0,
        "meta_classification_type": "U",
        "meta_norad_cat_id": 66486,
        "meta_element_set_no": 999,
        "meta_rev_at_epoch": 508,
        "meta_bstar": -0.00080763772,
        "meta_mean_motion_dot": -0.00047424,
        "meta_mean_motion_ddot": 0,
        "tle_line1": "1 66486U 25263B   25343.58335648 -.00047424  00000+0 -80764-3 0  9997",
        "tle_line2": "2 66486  43.0003 143.6281 0001451 268.2613  15.3529 15.50572039  5081"
      },
      "geometry": {
        "type": "Point",
        "coordinates": [
          132.9873130563923,
          -7.671757685033582
        ]
      }
    },
    {
      "type": "Feature",
      "properties": {
        "norad_id": 66487,
        "name": "STARLINK-34733",
        "group": "last-30-days",
        "lat": -6.372166541235671,
        "lon": 134.41153895350996,
        "alt_km": 415.6352356205334,
        "timestamp": "2025-12-09T23:33:22.607784+00:00",
        "meta_object_name": "STARLINK-34733",
        "meta_object_id": "2025-263C",
        "meta_epoch": "2025-12-09T14:00:01.999872",
        "meta_mean_motion": 15.50577941,
        "meta_eccentricity": 0.00013994,
        "meta_inclination": 43.0003,
        "meta_ra_of_asc_node": 143.6239,
        "meta_arg_of_pericenter": 264.9276,
        "meta_mean_anomaly": 20.6121,
        "meta_ephemeris_type": 0,
        "meta_classification_type": "U",
        "meta_norad_cat_id": 66487,
        "meta_element_set_no": 999,
        "meta_rev_at_epoch": 512,
        "meta_bstar": -0.0011104276,
        "meta_mean_motion_dot": -0.00064944,
        "meta_mean_motion_ddot": 0,
        "tle_line1": "1 66487U 25263C   25343.58335648 -.00064944  00000+0 -11104-2 0  9995",
        "tle_line2": "2 66487  43.0003 143.6239 0001399 264.9276  20.6121 15.50577941  5123"
      },
      "geometry": {
        "type": "Point",
        "coordinates": [
          134.41153895350996,
          -6.372166541235671
        ]
      }
    }
  ]
}